{
  "norad_id": 46906,
  "name": "KSM1-C",
  "history": [
    {
      "epoch": "2026-03-28T17:59:49.945632Z",
      "apogee_km": 491.9325796264875,
      "perigee_km": 487.63381101783125,
      "latitude_deg": -2.0813733288991267e-05,
      "longitude_deg": 98.89481072457193,
      "height_km": 489.6177616727507,
      "semi_major_axis_km": 6867.920195322159,
      "eccentricity": 0.00031296,
      "inclination_deg": 36.8935,
      "raan_deg": 195.0188,
      "arg_perigee_deg": 250.2537,
      "mean_anomaly_deg": 109.7874,
      "mean_motion_rev_day": 15.25333828
    },
    {
      "epoch": "2026-03-29T04:59:38.993280Z",
      "apogee_km": 491.93006416326534,
      "perigee_km": 487.5332546475138,
      "latitude_deg": -2.9517884342151743e-05,
      "longitude_deg": -69.33389500214372,
      "height_km": 489.4294527749172,
      "semi_major_axis_km": 6867.86865940539,
      "eccentricity": 0.0003201,
      "inclination_deg": 36.8939,
      "raan_deg": 192.1961,
      "arg_perigee_deg": 254.4519,
      "mean_anomaly_deg": 105.5876,
      "mean_motion_rev_day": 15.25350997
    },
    {
      "epoch": "2026-03-30T04:33:31.813056Z",
      "apogee_km": 491.8436147647344,
      "perigee_km": 487.4633379988991,
      "latitude_deg": -9.263575701527661e-06,
      "longitude_deg": -69.82071664439734,
      "height_km": 489.0746583487822,
      "semi_major_axis_km": 6867.790476381817,
      "eccentricity": 0.0003189,
      "inclination_deg": 36.8942,
      "raan_deg": 186.1471,
      "arg_perigee_deg": 261.7954,
      "mean_anomaly_deg": 98.2433,
      "mean_motion_rev_day": 15.25377044
    },
    {
      "epoch": "2026-03-30T07:42:02.671200Z",
      "apogee_km": 491.81038093335974,
      "perigee_km": 487.4478385451321,
      "latitude_deg": -4.757964540497511e-05,
      "longitude_deg": -117.88507630922982,
      "height_km": 489.0559193719,
      "semi_major_axis_km": 6867.766109739246,
      "eccentricity": 0.00031761,
      "inclination_deg": 36.8942,
      "raan_deg": 185.3404,
      "arg_perigee_deg": 261.6122,
      "mean_anomaly_deg": 98.4266,
      "mean_motion_rev_day": 15.25385162
    }
  ]
}